[{"OBJECT_NAME":"STARLINK-31690","OBJECT_ID":"2024-076T","EPOCH":"2026-03-09T03:50:02.129568","MEAN_MOTION":15.27566842,"ECCENTRICITY":0.00010797,"INCLINATION":43.0064,"RA_OF_ASC_NODE":11.8152,"ARG_OF_PERICENTER":265.0084,"MEAN_ANOMALY":95.0645,"EPHEMERIS_TYPE":0,"CLASSIFICATION_TYPE":"U","NORAD_CAT_ID":59581,"ELEMENT_SET_NO":999,"REV_AT_EPOCH":10643,"BSTAR":-6.8074551e-5,"MEAN_MOTION_DOT":-2.134e-5,"MEAN_MOTION_DDOT":0},{"OBJECT_NAME":"COSMOS 2251 DEB","OBJECT_ID":"1993-036RB","EPOCH":"2026-03-09T01:08:04.800192","MEAN_MOTION":15.30699894,"ECCENTRICITY":0.00252965,"INCLINATION":73.7308,"RA_OF_ASC_NODE":76.2904,"ARG_OF_PERICENTER":263.9966,"MEAN_ANOMALY":95.8352,"EPHEMERIS_TYPE":0,"CLASSIFICATION_TYPE":"U","NORAD_CAT_ID":34410,"ELEMENT_SET_NO":999,"REV_AT_EPOCH":91089,"BSTAR":0.003018315,"MEAN_MOTION_DOT":0.00091531,"MEAN_MOTION_DDOT":0}]
